{
  "norad_id": 67684,
  "name": "CORAL",
  "history": [
    {
      "epoch": "2026-03-28T21:42:17.132544Z",
      "apogee_km": 403.3125713032032,
      "perigee_km": 386.01335018746886,
      "latitude_deg": 3.5061458143511525e-06,
      "longitude_deg": -176.42070154737215,
      "height_km": 399.0523539270136,
      "semi_major_axis_km": 6772.799960745336,
      "eccentricity": 0.00127711,
      "inclination_deg": 51.6304,
      "raan_deg": 335.4688,
      "arg_perigee_deg": 245.0966,
      "mean_anomaly_deg": 114.8699,
      "mean_motion_rev_day": 15.57580097
    },
    {
      "epoch": "2026-03-29T02:19:26.988096Z",
      "apogee_km": 403.196164049672,
      "perigee_km": 385.88790550839076,
      "latitude_deg": -2.4088347730003666e-05,
      "longitude_deg": 113.1334997450457,
      "height_km": 398.8697326584909,
      "semi_major_axis_km": 6772.679034779031,
      "eccentricity": 0.0012778,
      "inclination_deg": 51.6305,
      "raan_deg": 334.5038,
      "arg_perigee_deg": 245.56,
      "mean_anomaly_deg": 114.4059,
      "mean_motion_rev_day": 15.57621813
    },
    {
      "epoch": "2026-03-30T01:25:09.312384Z",
      "apogee_km": 402.6294431806,
      "perigee_km": 385.18465770665716,
      "latitude_deg": 3.816463025275103e-05,
      "longitude_deg": 120.93501643765119,
      "height_km": 397.7340623560345,
      "semi_major_axis_km": 6772.044050443628,
      "eccentricity": 0.001288,
      "inclination_deg": 51.6303,
      "raan_deg": 329.6801,
      "arg_perigee_deg": 249.3222,
      "mean_anomaly_deg": 110.639,
      "mean_motion_rev_day": 15.57840895
    },
    {
      "epoch": "2026-03-30T09:07:00.963264Z",
      "apogee_km": 402.44310412538834,
      "perigee_km": 384.99825699165467,
      "latitude_deg": 6.712196069804955e-05,
      "longitude_deg": 3.546395089646532,
      "height_km": 397.33034893184146,
      "semi_major_axis_km": 6771.857680558522,
      "eccentricity": 0.00128804,
      "inclination_deg": 51.6302,
      "raan_deg": 328.0728,
      "arg_perigee_deg": 250.8406,
      "mean_anomaly_deg": 109.1193,
      "mean_motion_rev_day": 15.57905206
    },
    {
      "epoch": "2026-03-30T19:53:35.219040Z",
      "apogee_km": 402.218082517963,
      "perigee_km": 384.6530296018973,
      "latitude_deg": 4.371147872192805e-05,
      "longitude_deg": -160.7910172978067,
      "height_km": 396.8138502390773,
      "semi_major_axis_km": 6771.572556059929,
      "eccentricity": 0.00129697,
      "inclination_deg": 51.6298,
      "raan_deg": 325.8207,
      "arg_perigee_deg": 252.5653,
      "mean_anomaly_deg": 107.3922,
      "mean_motion_rev_day": 15.58003603
    },
    {
      "epoch": "2026-03-31T15:54:15.621984Z",
      "apogee_km": 401.8252086907505,
      "perigee_km": 384.10523417725835,
      "latitude_deg": 1.669241695121093e-05,
      "longitude_deg": -105.9627147699834,
      "height_km": 395.86206044805874,
      "semi_major_axis_km": 6771.102221434005,
      "eccentricity": 0.0013085,
      "inclination_deg": 51.6295,
      "raan_deg": 321.6392,
      "arg_perigee_deg": 255.9556,
      "mean_anomaly_deg": 103.9982,
      "mean_motion_rev_day": 15.58165939
    }
  ]
}